ORBCOMM FM33            
1 25983U 99065D   25107.80138011  .00002064  00000+0  69608-3 0  9996
2 25983  45.0282 286.0231 0008883 122.3268 237.8443 14.39837202327364
ORBCOMM FM36            
1 25984U 99065E   25107.89541755  .00001999  00000+0  70216-3 0  9992
2 25984  45.0404  16.5834 0004283 357.1124   2.9699 14.37941798325743
ORBCOMM FM35            
1 25985U 99065F   25107.90186639  .00001971  00000+0  70708-3 0  9997
2 25985  45.0405  21.1129 0003335  73.4620 286.6594 14.36936980326113
ORBCOMM FM34            
1 25986U 99065G   25107.86911554  .00001962  00000+0  70343-3 0  9990
2 25986  45.0400  21.7529 0004559  27.9245 332.1847 14.36973869326222
ORBCOMM FM38            
1 33060U 08031A   25107.76966294  .00004204  00000+0  56336-3 0  9993
2 33060  48.4393 243.1199 0004800 146.6274 213.4945 14.81029234905798
ORBCOMM FM41            
1 33061U 08031B   25107.78278487  .00004047  00000+0  54849-3 0  9998
2 33061  48.4431 250.6297 0003920 131.6066  10.6888 14.80630471905286
ORBCOMM FM29            
1 33062U 08031C   25107.76999424  .00004083  00000+0  55214-3 0  9995
2 33062  48.4383 258.5716 0005644 128.2273   8.7041 14.80710798905193
ORBCOMM FM39            
1 33063U 08031D   25107.85175730  .00003620  00000+0  50911-3 0  9997
2 33063  48.4398 281.8006 0006469  98.7171 261.4476 14.79300534904869
